NORAD_CAT_ID,OBJECT_NAME,OBJECT_TYPE,EPOCH,MEAN_MOTION,ECCENTRICITY,INCLINATION,RA_OF_ASC_NODE,ARG_OF_PERICENTER,MEAN_ANOMALY,BSTAR,MEAN_MOTION_DOT,MEAN_MOTION_DDOT,TLE_LINE0,TLE_LINE1,TLE_LINE2,SEMIMAJOR_AXIS,PERIOD,APOGEE,PERIGEE,DECAYED
56783.0,STARLINK-6357,PAYLOAD,2024-06-25 04:00:42,14.98329669,0.0002617,70.0006,94.1395,256.9935,103.0932,-4.0906e-05,-5.81e-06,0.0,0 STARLINK-6357,1 56783U 23078S   24177.16715998 -.00000581  00000-0 -40906-4 0  9995,2 56783  70.0006  94.1395 0002617 256.9935 103.0932 14.98329669 59920,6950.194,96.107,573.878,570.24,0.0
56783.0,STARLINK-6357,PAYLOAD,2024-06-25 20:02:02,14.98331525,0.0002587,70.0008,92.4554,245.0723,115.0167,2.5195e-05,2.08e-06,0.0,0 STARLINK-6357,1 56783U 23078S   24177.83475577  .00000208  00000-0  25195-4 0  9992,2 56783  70.0008  92.4554 0002587 245.0723 115.0167 14.98331525 60288,6950.188,96.107,573.851,570.255,0.0
56783.0,STARLINK-6357,PAYLOAD,2024-06-25 21:38:10,14.98367036,0.0002693,70.0009,92.2878,245.834,114.2537,-0.00056326,-6.813e-05,0.0,0 STARLINK-6357,1 56783U 23078S   24177.90151122 -.00006813  00000-0 -56326-3 0  9996,2 56783  70.0009  92.2878 0002693 245.8340 114.2537 14.98367036 60038,6950.078,96.105,573.815,570.072,0.0
56783.0,STARLINK-6357,PAYLOAD,2024-06-26 04:02:43,14.98332945,0.0002637,70.0009,91.6144,250.0358,110.0517,1.7203e-05,1.12e-06,0.0,0 STARLINK-6357,1 56783U 23078S   24178.16855466  .00000112  00000-0  17203-4 0  9993,2 56783  70.0009  91.6144 0002637 250.0358 110.0517 14.98332945 60079,6950.184,96.107,573.882,570.216,0.0
56783.0,STARLINK-6357,PAYLOAD,2024-06-27 04:04:44,14.98327148,0.0002761,70.0004,89.0901,267.2289,92.8554,-1.4793e-06,-1.11e-06,0.0,0 STARLINK-6357,1 56783U 23078S   24179.16995981 -.00000111  00000-0 -14793-5 0  9994,2 56783  70.0004  89.0901 0002761 267.2289  92.8554 14.98327148 60489,6950.202,96.107,573.986,570.148,0.0
56783.0,STARLINK-6357,PAYLOAD,2024-06-27 21:42:13,14.98328916,0.0002781,70.0005,87.2376,267.7784,92.3056,-5.6784e-05,-7.7e-06,0.0,0 STARLINK-6357,1 56783U 23078S   24179.90432121 -.00000770  00000-0 -56784-4 0  9994,2 56783  70.0005  87.2376 0002781 267.7784  92.3056 14.98328916 60333,6950.196,96.107,573.994,570.128,0.0
56783.0,STARLINK-6357,PAYLOAD,2024-06-28 04:06:45,14.98327325,0.0002764,70.0006,86.5654,262.9641,97.1203,5.1858e-05,5.26e-06,0.0,0 STARLINK-6357,1 56783U 23078S   24180.17135911  .00000526  00000-0  51858-4 0  9996,2 56783  70.0006  86.5654 0002764 262.9641  97.1203 14.98327325 60638,6950.201,96.107,573.987,570.145,0.0
56783.0,STARLINK-6357,PAYLOAD,2024-06-28 10:31:17,14.98350077,0.0002823,70.0006,85.8917,268.0571,92.0265,-0.00035513,-4.33e-05,0.0,0 STARLINK-6357,1 56783U 23078S   24180.43839360 -.00004330  00000-0 -35513-3 0  9992,2 56783  70.0006  85.8917 0002823 268.0571  92.0265 14.98350077 60673,6950.131,96.106,573.958,570.034,0.0
56783.0,STARLINK-6357,PAYLOAD,2024-06-28 20:08:05,14.98334088,0.0002882,70.0001,84.8803,271.1783,88.9046,2.8293e-05,2.45e-06,0.0,0 STARLINK-6357,1 56783U 23078S   24180.83895523  .00000245  00000-0  28293-4 0  9996,2 56783  70.0001  84.8803 0002882 271.1783  88.9046 14.98334088 60738,6950.18,96.107,574.048,570.042,0.0
56783.0,STARLINK-6357,PAYLOAD,2024-06-28 21:44:13,14.98335348,0.0002886,70.0,84.7121,270.0975,89.9853,2.8207e-05,2.44e-06,0.0,0 STARLINK-6357,1 56783U 23078S   24180.90571425  .00000244  00000-0  28207-4 0  9990,2 56783  70.0000  84.7121 0002886 270.0975  89.9853 14.98335348 60483,6950.176,96.107,574.047,570.036,0.0
56783.0,STARLINK-6357,PAYLOAD,2024-06-29 04:08:45,14.98344278,0.0002721,70.0004,84.0394,268.3964,91.6883,0.00014444,1.631e-05,0.0,0 STARLINK-6357,1 56783U 23078S   24181.17274365  .00001631  00000-0  14444-3 0  9991,2 56783  70.0004  84.0394 0002721 268.3964  91.6883 14.98344278 60786,6950.149,96.106,573.905,570.123,0.0
56783.0,STARLINK-6357,PAYLOAD,2024-06-29 10:33:19,14.98318176,0.0003036,70.0002,83.3658,272.9477,87.1335,-0.00010924,-1.396e-05,0.0,0 STARLINK-6357,1 56783U 23078S   24181.43980555 -.00001396  00000-0 -10924-3 0  9994,2 56783  70.0002  83.3658 0003036 272.9477  87.1335 14.98318176 60824,6950.229,96.108,574.205,569.984,0.0
56783.0,STARLINK-6357,PAYLOAD,2024-06-29 23:22:24,14.98312717,0.0002951,70.0002,82.0201,268.4042,91.6779,-0.00018554,-2.305e-05,0.0,0 STARLINK-6357,1 56783U 23078S   24181.97389582 -.00002305  00000-0 -18554-3 0  9994,2 56783  70.0002  82.0201 0002951 268.4042  91.6779 14.98312717 60644,6950.246,96.108,574.162,570.06,0.0
56783.0,STARLINK-6357,PAYLOAD,2024-06-30 02:34:40,14.98312591,0.0002872,70.0003,81.6838,268.0952,91.9878,-0.00017978,-2.236e-05,0.0,0 STARLINK-6357,1 56783U 23078S   24182.10741716 -.00002236  00000-0 -17978-3 0  9993,2 56783  70.0003  81.6838 0002872 268.0952  91.9878 14.98312591 60928,6950.247,96.108,574.108,570.116,0.0
56783.0,STARLINK-6357,PAYLOAD,2024-06-30 10:35:20,14.98322545,0.0003008,70.0001,80.8418,269.3779,90.7036,-5.8645e-05,-7.93e-06,0.0,0 STARLINK-6357,1 56783U 23078S   24182.44120963 -.00000793  00000-0 -58645-4 0  9998,2 56783  70.0001  80.8418 0003008 269.3779  90.7036 14.98322545 60972,6950.216,96.107,574.172,569.99,0.0
56783.0,STARLINK-6357,PAYLOAD,2024-06-30 20:12:08,14.98335074,0.0003046,70.0001,79.8323,269.9066,90.1744,1.4614e-05,8.1e-07,0.0,0 STARLINK-6357,1 56783U 23078S   24182.84176014  .00000081  00000-0  14614-4 0  9996,2 56783  70.0001  79.8323 0003046 269.9066  90.1744 14.98335074 61031,6950.177,96.107,574.159,569.925,0.0
56783.0,STARLINK-6357,PAYLOAD,2024-06-30 21:48:16,14.98335815,0.0002977,70.0002,79.664,269.5199,90.5619,2.0279e-06,-6.9e-07,0.0,0 STARLINK-6357,1 56783U 23078S   24182.90851999 -.00000069  00000-0  20279-5 0  9997,2 56783  70.0002  79.6640 0002977 269.5199  90.5619 14.98335815 60786,6950.175,96.107,574.109,569.971,0.0
56783.0,STARLINK-6357,PAYLOAD,2024-07-01 10:37:19,14.98346702,0.0003216,69.9997,78.3167,265.9302,94.1489,3.0748e-05,2.74e-06,0.0,0 STARLINK-6357,1 56783U 23078S   24183.44258826  .00000274  00000-0  30748-4 0  9995,2 56783  69.9997  78.3167 0003216 265.9302  94.1489 14.98346702 61120,6950.141,96.106,574.241,569.771,0.0
56783.0,STARLINK-6357,PAYLOAD,2024-07-01 21:50:15,14.98335358,0.0003339,69.9997,77.1382,270.6876,89.3901,0.00036416,4.255e-05,0.0,0 STARLINK-6357,1 56783U 23078S   24183.90990477  .00004255  00000-0  36416-3 0  9991,2 56783  69.9997  77.1382 0003339 270.6876  89.3901 14.98335358 60939,6950.176,96.107,574.362,569.721,0.0
56783.0,STARLINK-6357,PAYLOAD,2024-07-02 02:38:39,14.98348106,0.0003452,69.9992,76.6328,272.7828,87.2936,0.00038619,4.52e-05,0.0,0 STARLINK-6357,1 56783U 23078S   24184.11017439  .00004520  00000-0  38619-3 0  9995,2 56783  69.9992  76.6328 0003452 272.7828  87.2936 14.98348106 61227,6950.137,96.106,574.401,569.603,0.0
56783.0,STARLINK-6357,PAYLOAD,2024-07-02 20:16:10,14.98324028,0.0003148,69.9994,74.7807,268.0664,92.0134,-0.00012497,-1.584e-05,0.0,0 STARLINK-6357,1 56783U 23078S   24184.84456256 -.00001584  00000-0 -12497-3 0  9994,2 56783  69.9994  74.7807 0003148 268.0664  92.0134 14.98324028 61331,6950.211,96.107,574.264,569.888,0.0
56783.0,STARLINK-6357,PAYLOAD,2024-07-02 21:52:18,14.98323555,0.000315,69.9997,74.6126,268.5876,91.4922,-0.00012844,-1.625e-05,0.0,0 STARLINK-6357,1 56783U 23078S   24184.91132316 -.00001625  00000-0 -12844-3 0  9992,2 56783  69.9997  74.6126 0003150 268.5876  91.4922 14.98323555 61084,6950.213,96.107,574.267,569.889,0.0
56783.0,STARLINK-6357,PAYLOAD,2024-07-03 20:18:10,14.983349,0.0003122,69.9995,72.2558,268.1262,91.9539,-0.00016473,-2.058e-05,0.0,0 STARLINK-6357,1 56783U 23078S   24185.84595535 -.00002058  00000-0 -16473-3 0  9994,2 56783  69.9995  72.2558 0003122 268.1262  91.9539 14.98334900 61488,6950.178,96.107,574.213,569.873,0.0
56783.0,STARLINK-6357,PAYLOAD,2024-07-03 21:54:18,14.98334104,0.0003217,69.9995,72.0884,269.62,90.459,-0.00014602,-1.835e-05,0.0,0 STARLINK-6357,1 56783U 23078S   24185.91271530 -.00001835  00000-0 -14602-3 0  9992,2 56783  69.9995  72.0884 0003217 269.6200  90.4590 14.98334104 61231,6950.18,96.107,574.281,569.809,0.0
56783.0,STARLINK-6357,PAYLOAD,2024-07-04 02:42:42,14.98341983,0.0003133,69.9994,71.5832,269.3436,90.7364,-0.00013358,-1.687e-05,0.0,0 STARLINK-6357,1 56783U 23078S   24186.11298899 -.00001687  00000-0 -13358-3 0  9994,2 56783  69.9994  71.5832 0003133 269.3436  90.7364 14.98341983 61529,6950.156,96.106,574.198,569.843,0.0
56783.0,STARLINK-6357,PAYLOAD,2024-07-04 09:07:14,14.98338459,0.0003046,69.9997,70.9098,270.1783,89.9027,-0.00019103,-2.372e-05,0.0,0 STARLINK-6357,1 56783U 23078S   24186.38003166 -.00002372  00000-0 -19103-3 0  9990,2 56783  69.9997  70.9098 0003046 270.1783  89.9027 14.98338459 61303,6950.167,96.106,574.149,569.915,0.0
56783.0,STARLINK-6357,PAYLOAD,2024-07-04 20:20:11,14.98322805,0.0002887,69.9998,69.7312,270.4358,89.647,0.00011857,1.322e-05,0.0,0 STARLINK-6357,1 56783U 23078S   24186.84735501  .00001322  00000-0  11857-3 0  9996,2 56783  69.9998  69.7312 0002887 270.4358  89.6470 14.98322805 61635,6950.215,96.107,574.087,570.074,0.0
56783.0,STARLINK-6357,PAYLOAD,2024-07-04 21:56:19,14.98323398,0.000288,69.9998,69.5629,270.5391,89.5438,0.00012158,1.358e-05,0.0,0 STARLINK-6357,1 56783U 23078S   24186.91411485  .00001358  00000-0  12158-3 0  9990,2 56783  69.9998  69.5629 0002880 270.5391  89.5438 14.98323398 61388,6950.213,96.107,574.08,570.077,0.0
56783.0,STARLINK-6357,PAYLOAD,2024-07-05 09:09:15,14.98327272,0.0002806,69.9999,68.3849,269.3869,90.6968,6.928e-05,7.34e-06,0.0,0 STARLINK-6357,1 56783U 23078S   24187.38143461  .00000734  00000-0  69280-4 0  9994,2 56783  69.9999  68.3849 0002806 269.3869  90.6968 14.98327272 61458,6950.201,96.107,574.017,570.116,0.0
56783.0,STARLINK-6357,PAYLOAD,2024-07-05 20:22:12,14.98326824,0.0002772,70.0001,67.2068,268.4197,91.6644,-2.726e-05,-4.18e-06,0.0,0 STARLINK-6357,1 56783U 23078S   24187.84875841 -.00000418  00000-0 -27260-4 0  9992,2 56783  70.0001  67.2068 0002772 268.4197  91.6644 14.98326824 61782,6950.203,96.107,573.994,570.141,0.0
